CTC1_L_00553063-01
1 41504U 24043EL  26070.40840278  .00000000  00000+0  00000-0 0  9994
2 41504  97.4000 186.0000 0000000   0.0000  12.0000 15.21936487    11
CTC1_L_00553063-02
1 41505U 26369UQ  26070.40840278  .00000000  00000+0  00000-0 0  9998
2 41505  97.4000 186.0000 0000000   0.0000 192.0000 15.21936487    11
CTC1_L_00553064-01
1 41506U 22820XG  26070.40840278  .00000000  00000+0  00000-0 0  9997
2 41506  97.4000 189.0000 0000000   0.0000  18.0000 15.21936487    12
CTC1_L_00553064-02
1 41507U 25023CW  26070.40840278  .00000000  00000+0  00000-0 0  9996
2 41507  97.4000 189.0000 0000000   0.0000 198.0000 15.21936487    12
CTC1_L_00553065-01
1 41508U 22178TW  26070.40840278  .00000000  00000+0  00000-0 0  9995
2 41508  97.4000 192.0000 0000000   0.0000  24.0000 15.21936487    15
CTC1_L_00553065-02
1 41509U 22594BI  26070.40840278  .00000000  00000+0  00000-0 0  9998
2 41509  97.4000 192.0000 0000000   0.0000 204.0000 15.21936487    16
CTC1_L_00553066-01
1 41510U 22173ZW  26070.40840278  .00000000  00000+0  00000-0 0  9993
2 41510  97.4000 195.0000 0000000   0.0000  30.0000 15.21936487    18
CTC1_L_00553066-02
1 41511U 26115UA  26070.40840278  .00000000  00000+0  00000-0 0  9994
2 41511  97.4000 195.0000 0000000   0.0000 210.0000 15.21936487    19
CTC1_L_00553067-01
1 41512U 23854SD  26070.40840278  .00000000  00000+0  00000-0 0  9992
2 41512  97.4000 198.0000 0000000   0.0000  36.0000 15.21936487    19
CTC1_L_00553067-02
1 41513U 24066PJ  26070.40840278  .00000000  00000+0  00000-0 0  9999
2 41513  97.4000 198.0000 0000000   0.0000 216.0000 15.21936487    10
CTC1_L_00553068-01
1 41514U 22909LA  26070.40840278  .00000000  00000+0  00000-0 0  9994
2 41514  97.4000 201.0000 0000000   0.0000  42.0000 15.21936487    13
CTC1_L_00553068-02
1 41515U 22219WB  26070.40840278  .00000000  00000+0  00000-0 0  9999
2 41515  97.4000 201.0000 0000000   0.0000 222.0000 15.21936487    14
CTC1_L_00553069-01
1 41516U 22529BP  26070.40840278  .00000000  00000+0  00000-0 0  9994
2 41516  97.4000 204.0000 0000000   0.0000  48.0000 15.21936487    14
CTC1_L_00553069-02
1 41517U 22652WZ  26070.40840278  .00000000  00000+0  00000-0 0  9992
2 41517  97.4000 204.0000 0000000   0.0000 228.0000 15.21936487    15
CTC1_L_00553070-01
1 41518U 25776KH  26070.40840278  .00000000  00000+0  00000-0 0  9993
2 41518  97.4000 207.0000 0000000   0.0000  54.0000 15.21936487    16
CTC1_L_00553070-02
1 41519U 22004GC  26070.40840278  .00000000  00000+0  00000-0 0  9995
2 41519  97.4000 207.0000 0000000   0.0000 234.0000 15.21936487    17
CTC1_L_00553071-01
1 41520U 24429GC  26070.40840278  .00000000  00000+0  00000-0 0  9990
2 41520  97.4000 210.0000 0000000   0.0000  60.0000 15.21936487    10
CTC1_L_00553071-02
1 41521U 25552MF  26070.40840278  .00000000  00000+0  00000-0 0  9999
2 41521  97.4000 210.0000 0000000   0.0000 240.0000 15.21936487    11
CTC1_L_00553072-01
1 41522U 23585KZ  26070.40840278  .00000000  00000+0  00000-0 0  9994
2 41522  97.4000 213.0000 0000000   0.0000  66.0000 15.21936487    11
CTC1_L_00553072-02
1 41523U 24092UY  26070.40840278  .00000000  00000+0  00000-0 0  9999
2 41523  97.4000 213.0000 0000000   0.0000 246.0000 15.21936487    12
CTC1_L_00553073-01
1 41524U 24326LL  26070.40840278  .00000000  00000+0  00000-0 0  9990
2 41524  97.4000 216.0000 0000000   0.0000  72.0000 15.21936487    13
CTC1_L_00553073-02
1 41525U 24413EG  26070.40840278  .00000000  00000+0  00000-0 0  9998
2 41525  97.4000 216.0000 0000000   0.0000 252.0000 15.21936487    14
CTC1_L_00553074-01
1 41526U 26761OZ  26070.40840278  .00000000  00000+0  00000-0 0  9997
2 41526  97.4000 219.0000 0000000   0.0000  78.0000 15.21936487    14
CTC1_L_00553074-02
1 41527U 23293BL  26070.40840278  .00000000  00000+0  00000-0 0  9995
2 41527  97.4000 219.0000 0000000   0.0000 258.0000 15.21936487    15
CTC1_L_00553075-01
1 41528U 24729GY  26070.40840278  .00000000  00000+0  00000-0 0  9991
2 41528  97.4000 222.0000 0000000   0.0000  84.0000 15.21936487    17
CTC1_L_00553075-02
1 41529U 26413ZE  26070.40840278  .00000000  00000+0  00000-0 0  9994
2 41529  97.4000 222.0000 0000000   0.0000 264.0000 15.21936487    18
CTC1_L_00553076-01
1 41530U 24123PD  26070.40840278  .00000000  00000+0  00000-0 0  9992
2 41530  97.4000 225.0000 0000000   0.0000  90.0000 15.21936487    10
CTC1_L_00553076-02
1 41531U 24359LI  26070.40840278  .00000000  00000+0  00000-0 0  9994
2 41531  97.4000 225.0000 0000000   0.0000 270.0000 15.21936487    11
CTC1_L_00553077-01
1 41532U 23821OF  26070.40840278  .00000000  00000+0  00000-0 0  9998
2 41532  97.4000 228.0000 0000000   0.0000  96.0000 15.21936487    11
CTC1_L_00553077-02
1 41533U 24849UK  26070.40840278  .00000000  00000+0  00000-0 0  9990
2 41533  97.4000 228.0000 0000000   0.0000 276.0000 15.21936487    12
CTC1_L_00553078-01
1 41534U 25596NW  26070.40840278  .00000000  00000+0  00000-0 0  9991
2 41534  97.4000 231.0000 0000000   0.0000 102.0000 15.21936487    15
CTC1_L_00553078-02
1 41535U 22150QJ  26070.40840278  .00000000  00000+0  00000-0 0  9995
2 41535  97.4000 231.0000 0000000   0.0000 282.0000 15.21936487    15
CTC1_L_00553079-01
1 41536U 26768WY  26070.40840278  .00000000  00000+0  00000-0 0  9995
2 41536  97.4000 234.0000 0000000   0.0000 108.0000 15.21936487    16
CTC1_L_00553079-02
1 41537U 25119WH  26070.40840278  .00000000  00000+0  00000-0 0  9995
2 41537  97.4000 234.0000 0000000   0.0000 288.0000 15.21936487    16
CTC1_L_00553080-01
1 41538U 23841PN  26070.40840278  .00000000  00000+0  00000-0 0  9996
2 41538  97.4000 237.0000 0000000   0.0000 114.0000 15.21936487    18
CTC1_L_00553080-02
1 41539U 26412TP  26070.40840278  .00000000  00000+0  00000-0 0  9994
2 41539  97.4000 237.0000 0000000   0.0000 294.0000 15.21936487    18
CTC1_L_00553081-01
1 41540U 25415IT  26070.40840278  .00000000  00000+0  00000-0 0  9998
2 41540  97.4000 240.0000 0000000   0.0000 120.0000 15.21936487    12
CTC1_L_00553081-02
1 41541U 24169YS  26070.40840278  .00000000  00000+0  00000-0 0  9994
2 41541  97.4000 240.0000 0000000   0.0000 300.0000 15.21936487    13
CTC1_L_00553082-01
1 41542U 23352GT  26070.40840278  .00000000  00000+0  00000-0 0  9998
2 41542  97.4000 243.0000 0000000   0.0000 126.0000 15.21936487    13
CTC1_L_00553082-02
1 41543U 22378DC  26070.40840278  .00000000  00000+0  00000-0 0  9996
2 41543  97.4000 243.0000 0000000   0.0000 306.0000 15.21936487    14
CTC1_L_00553083-01
1 41544U 22639AO  26070.40840278  .00000000  00000+0  00000-0 0  9997
2 41544  97.4000 246.0000 0000000   0.0000 132.0000 15.21936487    15
CTC1_L_00553083-02
1 41545U 23934LK  26070.40840278  .00000000  00000+0  00000-0 0  9997
2 41545  97.4000 246.0000 0000000   0.0000 312.0000 15.21936487    16
CTC1_L_00553084-01
1 41546U 23424PF  26070.40840278  .00000000  00000+0  00000-0 0  9992
2 41546  97.4000 249.0000 0000000   0.0000 138.0000 15.21936487    16
CTC1_L_00553084-02
1 41547U 26468DB  26070.40840278  .00000000  00000+0  00000-0 0  9994
2 41547  97.4000 249.0000 0000000   0.0000 318.0000 15.21936487    17
CTC1_L_00553085-01
1 41548U 22864WO  26070.40840278  .00000000  00000+0  00000-0 0  9991
2 41548  97.4000 252.0000 0000000   0.0000 144.0000 15.21936487    19
CTC1_L_00553085-02
1 41549U 23425KK  26070.40840278  .00000000  00000+0  00000-0 0  9996
2 41549  97.4000 252.0000 0000000   0.0000 324.0000 15.21936487    10
CTC1_L_00553086-01
1 41550U 23294ZX  26070.40840278  .00000000  00000+0  00000-0 0  9992
2 41550  97.4000 255.0000 0000000   0.0000 150.0000 15.21936487    12
CTC1_L_00553086-02
1 41551U 22630LP  26070.40840278  .00000000  00000+0  00000-0 0  9996
2 41551  97.4000 255.0000 0000000   0.0000 330.0000 15.21936487    13
CTC1_L_00553087-01
1 41552U 24163UZ  26070.40840278  .00000000  00000+0  00000-0 0  9990
2 41552  97.4000 258.0000 0000000   0.0000 156.0000 15.21936487    13
CTC1_L_00553087-02
1 41553U 23694NB  26070.40840278  .00000000  00000+0  00000-0 0  9999
2 41553  97.4000 258.0000 0000000   0.0000 336.0000 15.21936487    14
CTC1_L_00553088-01
1 41554U 24685DJ  26070.40840278  .00000000  00000+0  00000-0 0  9991
2 41554  97.4000 261.0000 0000000   0.0000 162.0000 15.21936487    16
CTC1_L_00553088-02
1 41555U 23591VJ  26070.40840278  .00000000  00000+0  00000-0 0  9997
2 41555  97.4000 261.0000 0000000   0.0000 342.0000 15.21936487    17
CTC1_L_00553089-01
1 41556U 26709LW  26070.40840278  .00000000  00000+0  00000-0 0  9992
2 41556  97.4000 264.0000 0000000   0.0000 168.0000 15.21936487    17
CTC1_L_00553089-02
1 41557U 24216NF  26070.40840278  .00000000  00000+0  00000-0 0  9994
2 41557  97.4000 264.0000 0000000   0.0000 348.0000 15.21936487    18
CTC1_L_00553090-01
1 41558U 23305GQ  26070.40840278  .00000000  00000+0  00000-0 0  9993
2 41558  97.4000 267.0000 0000000   0.0000 174.0000 15.21936487    19
CTC1_L_00553090-02
1 41559U 24844LC  26070.40840278  .00000000  00000+0  00000-0 0  9993
2 41559  97.4000 267.0000 0000000   0.0000 354.0000 15.21936487    10
CTC1_L_00553091-01
1 41560U 25085MM  26070.40840278  .00000000  00000+0  00000-0 0  9993
2 41560  97.4000 270.0000 0000000   0.0000 180.0000 15.21936487    13
CTC1_L_00553091-02
1 41561U 26588MX  26070.40840278  .00000000  00000+0  00000-0 0  9993
2 41561  97.4000 270.0000 0000000   0.0000   0.0000 15.21936487    15
CTC1_L_00553092-01
1 41562U 22003MI  26070.40840278  .00000000  00000+0  00000-0 0  9992
2 41562  97.4000 273.0000 0000000   0.0000 186.0000 15.21936487    14
CTC1_L_00553092-02
1 41563U 24731KQ  26070.40840278  .00000000  00000+0  00000-0 0  9993
2 41563  97.4000 273.0000 0000000   0.0000   6.0000 15.21936487    16
CTC1_L_00553093-01
1 41564U 24847PZ  26070.40840278  .00000000  00000+0  00000-0 0  9992
2 41564  97.4000 276.0000 0000000   0.0000 192.0000 15.21936487    16
CTC1_L_00553093-02
1 41565U 26848BX  26070.40840278  .00000000  00000+0  00000-0 0  9996
2 41565  97.4000 276.0000 0000000   0.0000  12.0000 15.21936487    18
